[{"OBJECT_NAME":"NOAA 2 (ITOS-D)","OBJECT_ID":"1972-082A","EPOCH":"2026-03-03T16:20:57.679296","MEAN_MOTION":12.53211619,"ECCENTRICITY":0.0004,"INCLINATION":102.0168,"RA_OF_ASC_NODE":80.0662,"ARG_OF_PERICENTER":16.561,"MEAN_ANOMALY":98.3303,"EPHEMERIS_TYPE":0,"CLASSIFICATION_TYPE":"U","NORAD_CAT_ID":6235,"ELEMENT_SET_NO":999,"REV_AT_EPOCH":44173,"BSTAR":8.8374e-5,"MEAN_MOTION_DOT":-3.2e-7,"MEAN_MOTION_DDOT":0},{"OBJECT_NAME":"OSCAR 7 (AO-7)","OBJECT_ID":"1974-089B","EPOCH":"2026-03-03T15:54:46.442592","MEAN_MOTION":12.53696252,"ECCENTRICITY":0.0012027,"INCLINATION":101.9969,"RA_OF_ASC_NODE":74.788,"ARG_OF_PERICENTER":333.8373,"MEAN_ANOMALY":145.2081,"EPHEMERIS_TYPE":0,"CLASSIFICATION_TYPE":"U","NORAD_CAT_ID":7530,"ELEMENT_SET_NO":999,"REV_AT_EPOCH":34729,"BSTAR":1.5322e-5,"MEAN_MOTION_DOT":-4.4e-7,"MEAN_MOTION_DDOT":0},{"OBJECT_NAME":"TIROS N","OBJECT_ID":"1978-096A","EPOCH":"2026-03-03T16:17:01.407264","MEAN_MOTION":14.19335292,"ECCENTRICITY":0.0010402,"INCLINATION":98.4639,"RA_OF_ASC_NODE":88.4649,"ARG_OF_PERICENTER":182.1762,"MEAN_ANOMALY":177.9371,"EPHEMERIS_TYPE":0,"CLASSIFICATION_TYPE":"U","NORAD_CAT_ID":11060,"ELEMENT_SET_NO":999,"REV_AT_EPOCH":66378,"BSTAR":0.00012799,"MEAN_MOTION_DOT":2.27e-6,"MEAN_MOTION_DDOT":0},{"OBJECT_NAME":"PHASE 3B (AO-10)","OBJECT_ID":"1983-058B","EPOCH":"2026-03-02T12:48:52.290720","MEAN_MOTION":2.05874052,"ECCENTRICITY":0.6049007,"INCLINATION":25.932,"RA_OF_ASC_NODE":237.486,"ARG_OF_PERICENTER":86.0782,"MEAN_ANOMALY":336.7646,"EPHEMERIS_TYPE":0,"CLASSIFICATION_TYPE":"U","NORAD_CAT_ID":14129,"ELEMENT_SET_NO":999,"REV_AT_EPOCH":29329,"BSTAR":0,"MEAN_MOTION_DOT":-1.64e-6,"MEAN_MOTION_DDOT":0},{"OBJECT_NAME":"HILAT","OBJECT_ID":"1983-063A","EPOCH":"2026-03-03T15:57:44.774784","MEAN_MOTION":14.38628673,"ECCENTRICITY":0.0038276,"INCLINATION":82.0206,"RA_OF_ASC_NODE":259.1233,"ARG_OF_PERICENTER":250.0016,"MEAN_ANOMALY":178.9209,"EPHEMERIS_TYPE":0,"CLASSIFICATION_TYPE":"U","NORAD_CAT_ID":14154,"ELEMENT_SET_NO":999,"REV_AT_EPOCH":23241,"BSTAR":0.00016864,"MEAN_MOTION_DOT":5.36e-6,"MEAN_MOTION_DDOT":0},{"OBJECT_NAME":"UOSAT 2 (UO-11)","OBJECT_ID":"1984-021B","EPOCH":"2026-03-03T11:56:12.394752","MEAN_MOTION":14.90478819,"ECCENTRICITY":0.00078588,"INCLINATION":97.7937,"RA_OF_ASC_NODE":29.3491,"ARG_OF_PERICENTER":162.1253,"MEAN_ANOMALY":198.0243,"EPHEMERIS_TYPE":0,"CLASSIFICATION_TYPE":"U","NORAD_CAT_ID":14781,"ELEMENT_SET_NO":999,"REV_AT_EPOCH":24138,"BSTAR":0.00021301342,"MEAN_MOTION_DOT":2.024e-5,"MEAN_MOTION_DDOT":0},{"OBJECT_NAME":"NOAA 9","OBJECT_ID":"1984-123A","EPOCH":"2026-03-03T17:23:51.982944","MEAN_MOTION":14.17036595,"ECCENTRICITY":0.0013708,"INCLINATION":99.1101,"RA_OF_ASC_NODE":86.8671,"ARG_OF_PERICENTER":289.8193,"MEAN_ANOMALY":183.1605,"EPHEMERIS_TYPE":0,"CLASSIFICATION_TYPE":"U","NORAD_CAT_ID":15427,"ELEMENT_SET_NO":999,"REV_AT_EPOCH":12848,"BSTAR":9.537e-5,"MEAN_MOTION_DOT":1.45e-6,"MEAN_MOTION_DDOT":0},{"OBJECT_NAME":"GEOSAT","OBJECT_ID":"1985-021A","EPOCH":"2026-03-03T08:17:02.761440","MEAN_MOTION":14.39906842,"ECCENTRICITY":0.00024829,"INCLINATION":108.0477,"RA_OF_ASC_NODE":221.1438,"ARG_OF_PERICENTER":261.6152,"MEAN_ANOMALY":98.4709,"EPHEMERIS_TYPE":0,"CLASSIFICATION_TYPE":"U","NORAD_CAT_ID":15595,"ELEMENT_SET_NO":999,"REV_AT_EPOCH":14753,"BSTAR":0.00015235703,"MEAN_MOTION_DOT":3.44e-6,"MEAN_MOTION_DDOT":0},{"OBJECT_NAME":"EUTELSAT 1-F4 (ECS 4)","OBJECT_ID":"1987-078B","EPOCH":"2026-03-03T11:34:25.665600","MEAN_MOTION":0.98690192,"ECCENTRICITY":0.0011534,"INCLINATION":13.9034,"RA_OF_ASC_NODE":342.862,"ARG_OF_PERICENTER":24.9766,"MEAN_ANOMALY":160.8519,"EPHEMERIS_TYPE":0,"CLASSIFICATION_TYPE":"U","NORAD_CAT_ID":18351,"ELEMENT_SET_NO":999,"REV_AT_EPOCH":12571,"BSTAR":0,"MEAN_MOTION_DOT":-1.41e-6,"MEAN_MOTION_DDOT":0},{"OBJECT_NAME":"PACSAT (AO-16)","OBJECT_ID":"1990-005D","EPOCH":"2026-03-03T16:18:37.536768","MEAN_MOTION":14.33899133,"ECCENTRICITY":0.0010684,"INCLINATION":98.8658,"RA_OF_ASC_NODE":95.8219,"ARG_OF_PERICENTER":175.7404,"MEAN_ANOMALY":303.4922,"EPHEMERIS_TYPE":0,"CLASSIFICATION_TYPE":"U","NORAD_CAT_ID":20439,"ELEMENT_SET_NO":999,"REV_AT_EPOCH":88681,"BSTAR":8.6647e-5,"MEAN_MOTION_DOT":1.95e-6,"MEAN_MOTION_DDOT":0},{"OBJECT_NAME":"LUSAT (LO-19)","OBJECT_ID":"1990-005G","EPOCH":"2026-03-03T14:53:51.602496","MEAN_MOTION":14.34085025,"ECCENTRICITY":0.0012108,"INCLINATION":98.8939,"RA_OF_ASC_NODE":81.4758,"ARG_OF_PERICENTER":151.336,"MEAN_ANOMALY":208.8491,"EPHEMERIS_TYPE":0,"CLASSIFICATION_TYPE":"U","NORAD_CAT_ID":20442,"ELEMENT_SET_NO":999,"REV_AT_EPOCH":88726,"BSTAR":8.8596e-5,"MEAN_MOTION_DOT":2.01e-6,"MEAN_MOTION_DDOT":0},{"OBJECT_NAME":"IRS-1B","OBJECT_ID":"1991-061A","EPOCH":"2026-03-03T15:00:25.297920","MEAN_MOTION":13.97859786,"ECCENTRICITY":0.0023635,"INCLINATION":99.4143,"RA_OF_ASC_NODE":67.9304,"ARG_OF_PERICENTER":291.0808,"MEAN_ANOMALY":178.7348,"EPHEMERIS_TYPE":0,"CLASSIFICATION_TYPE":"U","NORAD_CAT_ID":21688,"ELEMENT_SET_NO":999,"REV_AT_EPOCH":65374,"BSTAR":-2.2759e-5,"MEAN_MOTION_DOT":-7.9e-7,"MEAN_MOTION_DDOT":0},{"OBJECT_NAME":"COSMOS 2197","OBJECT_ID":"1992-042A","EPOCH":"2026-03-03T17:43:24.614112","MEAN_MOTION":12.64247971,"ECCENTRICITY":0.0012946,"INCLINATION":82.5932,"RA_OF_ASC_NODE":296.3351,"ARG_OF_PERICENTER":150.6037,"MEAN_ANOMALY":272.4026,"EPHEMERIS_TYPE":0,"CLASSIFICATION_TYPE":"U","NORAD_CAT_ID":22034,"ELEMENT_SET_NO":999,"REV_AT_EPOCH":55196,"BSTAR":0.00023234,"MEAN_MOTION_DOT":5.3e-7,"MEAN_MOTION_DDOT":0},{"OBJECT_NAME":"PEGASUS R/B","OBJECT_ID":"1993-009C","EPOCH":"2026-03-03T07:07:27.681024","MEAN_MOTION":14.57808253,"ECCENTRICITY":0.00442329,"INCLINATION":24.9787,"RA_OF_ASC_NODE":36.301,"ARG_OF_PERICENTER":45.3021,"MEAN_ANOMALY":315.1082,"EPHEMERIS_TYPE":0,"CLASSIFICATION_TYPE":"U","NORAD_CAT_ID":22491,"ELEMENT_SET_NO":999,"REV_AT_EPOCH":75416,"BSTAR":0.00029498991,"MEAN_MOTION_DOT":1.596e-5,"MEAN_MOTION_DDOT":0},{"OBJECT_NAME":"EYESAT A (AO-27)","OBJECT_ID":"1993-061C","EPOCH":"2026-03-03T16:38:34.426464","MEAN_MOTION":14.30910753,"ECCENTRICITY":0.0009211,"INCLINATION":98.6994,"RA_OF_ASC_NODE":130.0988,"ARG_OF_PERICENTER":55.1566,"MEAN_ANOMALY":305.0482,"EPHEMERIS_TYPE":0,"CLASSIFICATION_TYPE":"U","NORAD_CAT_ID":22825,"ELEMENT_SET_NO":999,"REV_AT_EPOCH":69191,"BSTAR":7.6005e-5,"MEAN_MOTION_DOT":1.55e-6,"MEAN_MOTION_DDOT":0},{"OBJECT_NAME":"ITAMSAT (IO-26)","OBJECT_ID":"1993-061D","EPOCH":"2026-03-03T18:34:41.695680","MEAN_MOTION":14.31334617,"ECCENTRICITY":0.0009515,"INCLINATION":98.6943,"RA_OF_ASC_NODE":130.0863,"ARG_OF_PERICENTER":39.5113,"MEAN_ANOMALY":320.6761,"EPHEMERIS_TYPE":0,"CLASSIFICATION_TYPE":"U","NORAD_CAT_ID":22826,"ELEMENT_SET_NO":999,"REV_AT_EPOCH":69223,"BSTAR":8.4654e-5,"MEAN_MOTION_DOT":1.8e-6,"MEAN_MOTION_DDOT":0},{"OBJECT_NAME":"RADIO ROSTO (RS15)","OBJECT_ID":"1994-085A","EPOCH":"2026-03-03T18:04:50.507904","MEAN_MOTION":11.27583827,"ECCENTRICITY":0.0152451,"INCLINATION":64.8146,"RA_OF_ASC_NODE":113.7348,"ARG_OF_PERICENTER":23.1474,"MEAN_ANOMALY":337.6224,"EPHEMERIS_TYPE":0,"CLASSIFICATION_TYPE":"U","NORAD_CAT_ID":23439,"ELEMENT_SET_NO":999,"REV_AT_EPOCH":28401,"BSTAR":0.00091777,"MEAN_MOTION_DOT":-1.0e-7,"MEAN_MOTION_DDOT":0}]
